NORAD_CAT_ID,OBJECT_NAME,OBJECT_TYPE,EPOCH,MEAN_MOTION,ECCENTRICITY,INCLINATION,RA_OF_ASC_NODE,ARG_OF_PERICENTER,MEAN_ANOMALY,BSTAR,MEAN_MOTION_DOT,MEAN_MOTION_DDOT,TLE_LINE0,TLE_LINE1,TLE_LINE2,SEMIMAJOR_AXIS,PERIOD,APOGEE,PERIGEE,DECAYED
56460.0,STARLINK-6047,PAYLOAD,2023-08-06 17:48:48,14.9831611,0.0003306,69.9995,9.4661,270.2455,89.8325,-0.00011651,-1.482e-05,0.0,0 STARLINK-6047,1 56460U 23064N   23218.74222838 -.00001482  00000-0 -11651-3 0  9992,2 56460  69.9995   9.4661 0003306 270.2455  89.8325 14.98316110 13916,6950.236,96.108,574.399,569.803,0.0
56460.0,STARLINK-6047,PAYLOAD,2023-08-07 09:50:09,14.98326967,0.0003365,69.9991,7.7815,268.8873,91.19,-0.00015517,-1.944e-05,0.0,0 STARLINK-6047,1 56460U 23064N   23219.40982677 -.00001944  00000-0 -15517-3 0  9998,2 56460  69.9991   7.7815 0003365 268.8873  91.1900 14.98326967 14014,6950.202,96.107,574.406,569.729,0.0
56460.0,STARLINK-6047,PAYLOAD,2023-08-07 17:50:48,14.98331564,0.0003244,69.9994,6.9402,267.3713,92.7075,-7.5621e-05,-9.95e-06,0.0,0 STARLINK-6047,1 56460U 23064N   23219.74362212 -.00000995  00000-0 -75621-4 0  9990,2 56460  69.9994   6.9402 0003244 267.3713  92.7075 14.98331564 14067,6950.188,96.107,574.308,569.798,0.0
56460.0,STARLINK-6047,PAYLOAD,2023-08-08 16:16:40,14.98334494,0.0003361,69.9996,4.5839,267.2221,92.8553,0.00026764,3.102e-05,0.0,0 STARLINK-6047,1 56460U 23064N   23220.67825024  .00003102  00000-0  26764-3 0  9993,2 56460  69.9996   4.5839 0003361 267.2221  92.8553 14.98334494 14203,6950.179,96.107,574.38,569.708,0.0
56460.0,STARLINK-6047,PAYLOAD,2023-08-09 09:54:10,14.98329848,0.0003314,69.9998,2.7322,266.7995,93.2784,6.3174e-05,6.61e-06,0.0,0 STARLINK-6047,1 56460U 23064N   23221.41261783  .00000661  00000-0  63174-4 0  9996,2 56460  69.9998   2.7322 0003314 266.7995  93.2784 14.98329848 14312,6950.193,96.107,574.362,569.755,0.0
56460.0,STARLINK-6047,PAYLOAD,2023-08-10 09:56:10,14.98342229,0.0003133,69.9997,0.2086,269.9942,90.0858,-0.0001853,-2.304e-05,0.0,0 STARLINK-6047,1 56460U 23064N   23222.41401562 -.00002304  00000-0 -18530-3 0  9991,2 56460  69.9997   0.2086 0003133 269.9942  90.0858 14.98342229 14468,6950.155,96.106,574.198,569.843,0.0
56460.0,STARLINK-6047,PAYLOAD,2023-08-11 01:57:31,14.98322398,0.0003149,70.0002,358.5252,270.5599,89.5199,0.00018529,2.118e-05,0.0,0 STARLINK-6047,1 56460U 23064N   23223.08161521  .00002118  00000-0  18529-3 0  9992,2 56460  70.0002 358.5252 0003149 270.5599  89.5199 14.98322398 14562,6950.216,96.107,574.27,569.893,0.0
56460.0,STARLINK-6047,PAYLOAD,2023-08-12 01:59:32,14.98328915,0.0003174,70.0006,356.0008,268.8801,91.1994,3.6834e-06,-4.9e-07,0.0,0 STARLINK-6047,1 56460U 23064N   23224.08301476 -.00000049  00000-0  36834-5 0  9991,2 56460  70.0006 356.0008 0003174 268.8801  91.1994 14.98328915 14712,6950.196,96.107,574.267,569.855,0.0
56460.0,STARLINK-6047,PAYLOAD,2023-08-13 08:26:05,14.98327195,0.0003262,70.0006,352.8024,266.7529,93.3257,1.7415e-05,1.15e-06,0.0,0 STARLINK-6047,1 56460U 23064N   23225.35145363  .00000115  00000-0  17415-4 0  9999,2 56460  70.0006 352.8024 0003262 266.7529  93.3257 14.98327195 14902,6950.202,96.107,574.334,569.799,0.0
56460.0,STARLINK-6047,PAYLOAD,2023-08-14 10:04:14,14.98326737,0.0003461,69.9998,350.108,268.9871,91.0892,1.3009e-05,6.2e-07,0.0,0 STARLINK-6047,1 56460U 23064N   23226.41961462  .00000062  00000-0  13009-4 0  9999,2 56460  69.9998 350.1080 0003461 268.9871  91.0892 14.98326737 15066,6950.203,96.107,574.473,569.663,0.0
56460.0,STARLINK-6047,PAYLOAD,2023-08-15 10:06:15,14.98329421,0.0003176,70.0006,347.5828,271.4379,88.6417,5.2531e-05,5.34e-06,0.0,0 STARLINK-6047,1 56460U 23064N   23227.42101161  .00000534  00000-0  52531-4 0  9990,2 56460  70.0006 347.5828 0003176 271.4379  88.6417 14.98329421 15219,6950.195,96.107,574.267,569.852,0.0
56460.0,STARLINK-6047,PAYLOAD,2023-08-16 10:08:16,14.98328339,0.0003125,70.0013,345.0587,273.7056,86.3745,-3.2352e-06,-1.32e-06,0.0,0 STARLINK-6047,1 56460U 23064N   23228.42241319 -.00000132  00000-0 -32352-5 0  9997,2 56460  70.0013 345.0587 0003125 273.7056  86.3745 14.98328339 15365,6950.198,96.107,574.235,569.891,0.0
56460.0,STARLINK-6047,PAYLOAD,2023-08-17 10:10:17,14.98331789,0.0003091,70.0005,342.5329,270.6328,89.4477,-3.137e-05,-4.67e-06,0.0,0 STARLINK-6047,1 56460U 23064N   23229.42381029 -.00000467  00000-0 -31370-4 0  9990,2 56460  70.0005 342.5329 0003091 270.6328  89.4477 14.98331789 15518,6950.187,96.107,574.201,569.904,0.0
56460.0,STARLINK-6047,PAYLOAD,2023-08-18 10:12:18,14.98325235,0.0003123,69.9998,340.008,264.6037,95.4766,-6.1655e-05,-8.29e-06,0.0,0 STARLINK-6047,1 56460U 23064N   23230.42521398 -.00000829  00000-0 -61655-4 0  9998,2 56460  69.9998 340.0080 0003123 264.6037  95.4766 14.98325235 15662,6950.208,96.107,574.243,569.902,0.0
56460.0,STARLINK-6047,PAYLOAD,2023-08-19 00:37:30,14.98335179,0.0003696,69.9999,338.4926,264.7102,95.3635,-5.4032e-05,-7.38e-06,0.0,0 STARLINK-6047,1 56460U 23064N   23231.02604572 -.00000738  00000-0 -54032-4 0  9991,2 56460  69.9999 338.4926 0003696 264.7102  95.3635 14.98335179 15754,6950.177,96.107,574.611,569.473,0.0
56460.0,STARLINK-6047,PAYLOAD,2023-08-19 10:14:16,14.98353742,0.0003294,69.9998,337.4831,268.4704,91.6078,0.0002576,2.984e-05,0.0,0 STARLINK-6047,1 56460U 23064N   23231.42658418  .00002984  00000-0  25760-3 0  9991,2 56460  69.9998 337.4831 0003294 268.4704  91.6078 14.98353742 15813,6950.119,96.105,574.274,569.695,0.0
56460.0,STARLINK-6047,PAYLOAD,2023-08-19 13:26:32,14.98360843,0.0003332,69.9998,337.147,267.5558,92.5219,0.00024111,2.787e-05,0.0,0 STARLINK-6047,1 56460U 23064N   23231.56009793  .00002787  00000-0  24111-3 0  9992,2 56460  69.9998 337.1470 0003332 267.5558  92.5219 14.98360843 15838,6950.098,96.105,574.278,569.647,0.0
56460.0,STARLINK-6047,PAYLOAD,2023-08-20 11:52:28,14.9831403,0.000318,70.0002,334.7906,264.5545,95.5251,-9.8359e-05,-1.266e-05,0.0,0 STARLINK-6047,1 56460U 23064N   23232.49477810 -.00001266  00000-0 -98359-4 0  9993,2 56460  70.0002 334.7906 0003180 264.5545  95.5251 14.98314030 15979,6950.242,96.108,574.317,569.897,0.0
56460.0,STARLINK-6047,PAYLOAD,2023-08-21 00:41:33,14.98334562,0.0003312,70.0,333.4442,268.523,91.555,-0.00028293,-3.468e-05,0.0,0 STARLINK-6047,1 56460U 23064N   23233.02885520 -.00003468  00000-0 -28293-3 0  9999,2 56460  70.0000 333.4442 0003312 268.5230  91.5550 14.98334562 16050,6950.179,96.107,574.346,569.742,0.0
56460.0,STARLINK-6047,PAYLOAD,2023-08-21 16:42:52,14.98342921,0.0003188,70.0001,331.7607,267.1148,92.9646,-0.00016847,-2.103e-05,0.0,0 STARLINK-6047,1 56460U 23064N   23233.69644451 -.00002103  00000-0 -16847-3 0  9995,2 56460  70.0001 331.7607 0003188 267.1148  92.9646 14.98342921 16159,6950.153,96.106,574.234,569.802,0.0
56460.0,STARLINK-6047,PAYLOAD,2023-08-22 19:57:09,14.9833601,0.0003139,69.9999,328.8985,274.4629,85.6172,0.00031329,3.648e-05,0.0,0 STARLINK-6047,1 56460U 23064N   23234.83135601  .00003648  00000-0  31329-3 0  9999,2 56460  69.9999 328.8985 0003139 274.4629  85.6172 14.98336010 16323,6950.174,96.107,574.221,569.858,0.0
56460.0,STARLINK-6047,PAYLOAD,2023-08-23 11:58:32,14.98317378,0.0003151,70.0003,327.216,275.248,84.832,-0.00011909,-1.513e-05,0.0,0 STARLINK-6047,1 56460U 23064N   23235.49898211 -.00001513  00000-0 -11909-3 0  9998,2 56460  70.0003 327.2160 0003151 275.2480  84.8320 14.98317378 16421,6950.232,96.108,574.287,569.907,0.0
56460.0,STARLINK-6047,PAYLOAD,2023-08-24 12:00:31,14.98334498,0.0003344,69.9998,324.6914,275.718,84.3598,-6.8822e-05,-9.14e-06,0.0,0 STARLINK-6047,1 56460U 23064N   23236.50037034 -.00000914  00000-0 -68822-4 0  9990,2 56460  69.9998 324.6914 0003344 275.7180  84.3598 14.98334498 16216,6950.179,96.107,574.368,569.72,0.0
56460.0,STARLINK-6047,PAYLOAD,2023-08-25 13:38:40,14.9832777,0.0003186,69.9999,321.9992,270.8913,89.1881,0.00015345,1.738e-05,0.0,0 STARLINK-6047,1 56460U 23064N   23237.56852719  .00001738  00000-0  15345-3 0  9996,2 56460  69.9999 321.9992 0003186 270.8913  89.1881 14.98327770 16377,6950.2,96.107,574.279,569.85,0.0
56460.0,STARLINK-6047,PAYLOAD,2023-08-25 15:14:48,14.98328495,0.0003105,70.0002,321.8312,270.2949,89.7854,0.00015372,1.742e-05,0.0,0 STARLINK-6047,1 56460U 23064N   23237.63528698  .00001742  00000-0  15372-3 0  9995,2 56460  70.0002 321.8312 0003105 270.2949  89.7854 14.98328495 16746,6950.198,96.107,574.221,569.905,0.0
56460.0,STARLINK-6047,PAYLOAD,2023-08-26 12:04:33,14.98329769,0.0003267,70.0002,319.6417,271.3435,88.735,-3.273e-05,-4.84e-06,0.0,0 STARLINK-6047,1 56460U 23064N   23238.50317053 -.00000484  00000-0 -32730-4 0  9995,2 56460  70.0002 319.6417 0003267 271.3435  88.7350 14.98329769 16518,6950.194,96.107,574.329,569.788,0.0
56460.0,STARLINK-6047,PAYLOAD,2023-08-26 15:16:49,14.98329921,0.0003065,70.0003,319.3051,267.9951,92.0857,7.2633e-06,-6e-08,0.0,0 STARLINK-6047,1 56460U 23064N   23238.63668920 -.00000006  00000-0  72633-5 0  9997,2 56460  70.0003 319.3051 0003065 267.9951  92.0857 14.98329921 16891,6950.193,96.107,574.188,569.928,0.0
56460.0,STARLINK-6047,PAYLOAD,2023-08-27 04:05:53,14.9834029,0.0003089,69.9998,317.958,266.6716,93.4089,4.9037e-05,4.92e-06,0.0,0 STARLINK-6047,1 56460U 23064N   23239.17075907  .00000492  00000-0  49037-4 0  9993,2 56460  69.9998 317.9580 0003089 266.6716  93.4089 14.98340290 16976,6950.161,96.106,574.173,569.879,0.0
56460.0,STARLINK-6047,PAYLOAD,2023-08-27 08:54:17,14.983406,0.0003081,69.9998,317.453,266.5327,93.5479,5.1631e-05,5.23e-06,0.0,0 STARLINK-6047,1 56460U 23064N   23239.37103748  .00000523  00000-0  51631-4 0  9998,2 56460  69.9998 317.4530 0003081 266.5327  93.5479 14.98340600 16648,6950.16,96.106,574.166,569.884,0.0
56460.0,STARLINK-6047,PAYLOAD,2023-08-27 15:18:49,14.98342339,0.0003075,69.9999,316.7798,266.5564,93.5243,6.8559e-05,7.25e-06,0.0,0 STARLINK-6047,1 56460U 23064N   23239.63807409  .00000725  00000-0  68559-4 0  9993,2 56460  69.9999 316.7798 0003075 266.5564  93.5243 14.98342339 16687,6950.155,96.106,574.157,569.883,0.0
